CCSDS_OMM_VERS = 2.0
CREATION_DATE  = 
ORIGINATOR     = 

OBJECT_NAME    = STARLINK-36456
OBJECT_ID      = 2026-003Z
CENTER_NAME    = EARTH
REF_FRAME      = TEME
TIME_SYSTEM    = UTC
MEAN_ELEMENT_THEORY = SGP/SGP4

EPOCH          = 2026-01-16T22:00:01.999584
MEAN_MOTION    = 15.96266988
ECCENTRICITY   = .00016495
INCLINATION    = 42.9984
RA_OF_ASC_NODE = 167.5916
ARG_OF_PERICENTER = 273.1912
MEAN_ANOMALY   = 67.8996

EPHEMERIS_TYPE = 0
CLASSIFICATION_TYPE = U
NORAD_CAT_ID   = 67357
ELEMENT_SET_NO = 999
REV_AT_EPOCH   = 235
BSTAR          = -.37798856E-2
MEAN_MOTION_DOT = -.1625902E-1
MEAN_MOTION_DDOT = .76798087E-3

CCSDS_OMM_VERS = 2.0
CREATION_DATE  = 
ORIGINATOR     = 

OBJECT_NAME    = STARLINK-36466
OBJECT_ID      = 2026-003AA
CENTER_NAME    = EARTH
REF_FRAME      = TEME
TIME_SYSTEM    = UTC
MEAN_ELEMENT_THEORY = SGP/SGP4

EPOCH          = 2026-01-16T22:00:01.999584
MEAN_MOTION    = 15.96341653
ECCENTRICITY   = .00015941
INCLINATION    = 42.9984
RA_OF_ASC_NODE = 167.5858
ARG_OF_PERICENTER = 271.2729
MEAN_ANOMALY   = 71.9923

EPHEMERIS_TYPE = 0
CLASSIFICATION_TYPE = U
NORAD_CAT_ID   = 67358
ELEMENT_SET_NO = 999
REV_AT_EPOCH   = 235
BSTAR          = -.37950749E-2
MEAN_MOTION_DOT = -.1638939E-1
MEAN_MOTION_DDOT = .77998523E-3

CCSDS_OMM_VERS = 2.0
CREATION_DATE  = 
ORIGINATOR     = 

OBJECT_NAME    = STARLINK-36499
OBJECT_ID      = 2026-003AB
CENTER_NAME    = EARTH
REF_FRAME      = TEME
TIME_SYSTEM    = UTC
MEAN_ELEMENT_THEORY = SGP/SGP4

EPOCH          = 2026-01-16T22:00:01.999584
MEAN_MOTION    = 15.96405495
ECCENTRICITY   = .00017734
INCLINATION    = 42.9984
RA_OF_ASC_NODE = 167.5815
ARG_OF_PERICENTER = 274.5154
MEAN_ANOMALY   = 70.4579

EPHEMERIS_TYPE = 0
CLASSIFICATION_TYPE = U
NORAD_CAT_ID   = 67359
ELEMENT_SET_NO = 999
REV_AT_EPOCH   = 235
BSTAR          = -.38207835E-2
MEAN_MOTION_DOT = -.165566E-1
MEAN_MOTION_DDOT = .79526774E-3

CCSDS_OMM_VERS = 2.0
CREATION_DATE  = 
ORIGINATOR     = 

OBJECT_NAME    = STARLINK-36469
OBJECT_ID      = 2026-003AC
CENTER_NAME    = EARTH
REF_FRAME      = TEME
TIME_SYSTEM    = UTC
MEAN_ELEMENT_THEORY = SGP/SGP4

EPOCH          = 2026-01-16T22:00:01.999584
MEAN_MOTION    = 15.96477327
ECCENTRICITY   = .00017423
INCLINATION    = 42.9984
RA_OF_ASC_NODE = 167.5761
ARG_OF_PERICENTER = 275.8961
MEAN_ANOMALY   = 71.2118

EPHEMERIS_TYPE = 0
CLASSIFICATION_TYPE = U
NORAD_CAT_ID   = 67360
ELEMENT_SET_NO = 999
REV_AT_EPOCH   = 235
BSTAR          = -.3824219E-2
MEAN_MOTION_DOT = -.1663578E-1
MEAN_MOTION_DDOT = .80290627E-3

CCSDS_OMM_VERS = 2.0
CREATION_DATE  = 
ORIGINATOR     = 

OBJECT_NAME    = STARLINK-35306
OBJECT_ID      = 2026-003AD
CENTER_NAME    = EARTH
REF_FRAME      = TEME
TIME_SYSTEM    = UTC
MEAN_ELEMENT_THEORY = SGP/SGP4

EPOCH          = 2026-01-16T22:00:01.999584
MEAN_MOTION    = 15.96547360
ECCENTRICITY   = .00016892
INCLINATION    = 42.9981
RA_OF_ASC_NODE = 167.5720
ARG_OF_PERICENTER = 275.6124
MEAN_ANOMALY   = 73.1136

EPHEMERIS_TYPE = 0
CLASSIFICATION_TYPE = U
NORAD_CAT_ID   = 67361
ELEMENT_SET_NO = 999
REV_AT_EPOCH   = 229
BSTAR          = -.38203785E-2
MEAN_MOTION_DOT = -.1668233E-1
MEAN_MOTION_DDOT = .80765023E-3

CCSDS_OMM_VERS = 2.0
CREATION_DATE  = 
ORIGINATOR     = 

OBJECT_NAME    = STARLINK-36428
OBJECT_ID      = 2026-003AE
CENTER_NAME    = EARTH
REF_FRAME      = TEME
TIME_SYSTEM    = UTC
MEAN_ELEMENT_THEORY = SGP/SGP4

EPOCH          = 2026-01-16T22:00:01.999584
MEAN_MOTION    = 15.96603047
ECCENTRICITY   = .00016063
INCLINATION    = 42.9982
RA_OF_ASC_NODE = 167.5663
ARG_OF_PERICENTER = 273.6728
MEAN_ANOMALY   = 77.1015

EPHEMERIS_TYPE = 0
CLASSIFICATION_TYPE = U
NORAD_CAT_ID   = 67362
ELEMENT_SET_NO = 999
REV_AT_EPOCH   = 235
BSTAR          = -.38139484E-2
MEAN_MOTION_DOT = -.1670476E-1
MEAN_MOTION_DDOT = .81012699E-3

CCSDS_OMM_VERS = 2.0
CREATION_DATE  = 
ORIGINATOR     = 

OBJECT_NAME    = SHIJIAN-29B (SJ-29B)
OBJECT_ID      = 2025-315C
CENTER_NAME    = EARTH
REF_FRAME      = TEME
TIME_SYSTEM    = UTC
MEAN_ELEMENT_THEORY = SGP/SGP4

EPOCH          = 2026-01-16T19:32:33.011808
MEAN_MOTION    = 1.00271795
ECCENTRICITY   = .00008778
INCLINATION    = 3.0142
RA_OF_ASC_NODE = 99.1154
ARG_OF_PERICENTER = 326.9914
MEAN_ANOMALY   = 56.3680

EPHEMERIS_TYPE = 0
CLASSIFICATION_TYPE = U
NORAD_CAT_ID   = 67403
ELEMENT_SET_NO = 999
REV_AT_EPOCH   = 17
BSTAR          = 0
MEAN_MOTION_DOT = -.53E-6
MEAN_MOTION_DDOT = 0

CCSDS_OMM_VERS = 2.0
CREATION_DATE  = 
ORIGINATOR     = 

OBJECT_NAME    = YAOGAN-50 01
OBJECT_ID      = 2026-006A
CENTER_NAME    = EARTH
REF_FRAME      = TEME
TIME_SYSTEM    = UTC
MEAN_ELEMENT_THEORY = SGP/SGP4

EPOCH          = 2026-01-16T04:17:29.045760
MEAN_MOTION    = 14.21837795
ECCENTRICITY   = .01649624
INCLINATION    = 141.9984
RA_OF_ASC_NODE = 200.7842
ARG_OF_PERICENTER = 123.7171
MEAN_ANOMALY   = 237.9391

EPHEMERIS_TYPE = 0
CLASSIFICATION_TYPE = U
NORAD_CAT_ID   = 67433
ELEMENT_SET_NO = 999
REV_AT_EPOCH   = 37
BSTAR          = .12657815E-3
MEAN_MOTION_DOT = .537E-5
MEAN_MOTION_DDOT = 0

CCSDS_OMM_VERS = 2.0
CREATION_DATE  = 
ORIGINATOR     = 

OBJECT_NAME    = CZ-6A R/B
OBJECT_ID      = 2026-006B
CENTER_NAME    = EARTH
REF_FRAME      = TEME
TIME_SYSTEM    = UTC
MEAN_ELEMENT_THEORY = SGP/SGP4

EPOCH          = 2026-01-13T17:12:57.362112
MEAN_MOTION    = 14.62247694
ECCENTRICITY   = .02017257
INCLINATION    = 142.0438
RA_OF_ASC_NODE = 188.1412
ARG_OF_PERICENTER = 82.0696
MEAN_ANOMALY   = 280.2897

EPHEMERIS_TYPE = 0
CLASSIFICATION_TYPE = U
NORAD_CAT_ID   = 67434
ELEMENT_SET_NO = 999
REV_AT_EPOCH   = 2
BSTAR          = .30805067E-4
MEAN_MOTION_DOT = .541E-5
MEAN_MOTION_DDOT = 0

CCSDS_OMM_VERS = 2.0
CREATION_DATE  = 
ORIGINATOR     = 

OBJECT_NAME    = HULIANWANG DIGUI 18A
OBJECT_ID      = 2026-007A
CENTER_NAME    = EARTH
REF_FRAME      = TEME
TIME_SYSTEM    = UTC
MEAN_ELEMENT_THEORY = SGP/SGP4

EPOCH          = 2026-01-16T09:58:33.239136
MEAN_MOTION    = 13.92120172
ECCENTRICITY   = .00084289
INCLINATION    = 50.0089
RA_OF_ASC_NODE = 283.4039
ARG_OF_PERICENTER = 279.5288
MEAN_ANOMALY   = 80.4659

EPHEMERIS_TYPE = 0
CLASSIFICATION_TYPE = U
NORAD_CAT_ID   = 67435
ELEMENT_SET_NO = 999
REV_AT_EPOCH   = 39
BSTAR          = .23935441E-4
MEAN_MOTION_DOT = -.116E-5
MEAN_MOTION_DDOT = 0

CCSDS_OMM_VERS = 2.0
CREATION_DATE  = 
ORIGINATOR     = 

OBJECT_NAME    = HULIANWANG DIGUI 18B
OBJECT_ID      = 2026-007B
CENTER_NAME    = EARTH
REF_FRAME      = TEME
TIME_SYSTEM    = UTC
MEAN_ELEMENT_THEORY = SGP/SGP4

EPOCH          = 2026-01-16T09:58:52.592736
MEAN_MOTION    = 13.92012828
ECCENTRICITY   = .00075001
INCLINATION    = 50.0068
RA_OF_ASC_NODE = 283.4030
ARG_OF_PERICENTER = 267.7404
MEAN_ANOMALY   = 92.2637

EPHEMERIS_TYPE = 0
CLASSIFICATION_TYPE = U
NORAD_CAT_ID   = 67436
ELEMENT_SET_NO = 999
REV_AT_EPOCH   = 39
BSTAR          = .23911394E-4
MEAN_MOTION_DOT = -.116E-5
MEAN_MOTION_DDOT = 0

CCSDS_OMM_VERS = 2.0
CREATION_DATE  = 
ORIGINATOR     = 

OBJECT_NAME    = HULIANWANG DIGUI 18C
OBJECT_ID      = 2026-007C
CENTER_NAME    = EARTH
REF_FRAME      = TEME
TIME_SYSTEM    = UTC
MEAN_ELEMENT_THEORY = SGP/SGP4

EPOCH          = 2026-01-16T23:45:45.040896
MEAN_MOTION    = 13.92052922
ECCENTRICITY   = .00081915
INCLINATION    = 50.0026
RA_OF_ASC_NODE = 281.1061
ARG_OF_PERICENTER = 276.4393
MEAN_ANOMALY   = 83.5574

EPHEMERIS_TYPE = 0
CLASSIFICATION_TYPE = U
NORAD_CAT_ID   = 67437
ELEMENT_SET_NO = 999
REV_AT_EPOCH   = 47
BSTAR          = .81475498E-4
MEAN_MOTION_DOT = -.42E-6
MEAN_MOTION_DDOT = 0

